NORAD_CAT_ID,OBJECT_NAME,OBJECT_TYPE,EPOCH,MEAN_MOTION,ECCENTRICITY,INCLINATION,RA_OF_ASC_NODE,ARG_OF_PERICENTER,MEAN_ANOMALY,BSTAR,MEAN_MOTION_DOT,MEAN_MOTION_DDOT,TLE_LINE0,TLE_LINE1,TLE_LINE2,SEMIMAJOR_AXIS,PERIOD,APOGEE,PERIGEE,DECAYED
54766.0,STARLINK-5471,PAYLOAD,2023-08-29 00:02:48,15.08832914,0.0001372,53.2162,230.7102,95.4315,264.6834,8.5203e-05,1.068e-05,0.0,0 STARLINK-5471,1 54766U 22175J   23241.00194789  .00001068  00000-0  85203-4 0  9992,2 54766  53.2162 230.7102 0001372  95.4315 264.6834 15.08832914 38313,6917.902,95.438,540.716,538.818,0.0
54766.0,STARLINK-5471,PAYLOAD,2023-08-29 07:59:43,15.08834131,0.0001395,53.2164,229.2241,96.868,263.2471,0.00015292,2.146e-05,0.0,0 STARLINK-5471,1 54766U 22175J   23241.33314734  .00002146  00000-0  15292-3 0  9990,2 54766  53.2164 229.2241 0001395  96.8680 263.2471 15.08834131 40528,6917.898,95.438,540.728,538.798,0.0
54766.0,STARLINK-5471,PAYLOAD,2023-08-30 04:39:45,15.08835359,0.0001377,53.2166,225.3586,96.5647,263.5502,6.049e-05,6.75e-06,0.0,0 STARLINK-5471,1 54766U 22175J   23242.19427272  .00000675  00000-0  60490-4 0  9993,2 54766  53.2166 225.3586 0001377  96.5647 263.5502 15.08835359 38493,6917.895,95.438,540.712,538.807,0.0
54766.0,STARLINK-5471,PAYLOAD,2023-08-30 15:47:27,15.08837625,0.0001333,53.2168,223.2762,88.6569,271.4576,-1.2227e-05,-4.82e-06,0.0,0 STARLINK-5471,1 54766U 22175J   23242.65795390 -.00000482  00000-0 -12227-4 0  9996,2 54766  53.2168 223.2762 0001333  88.6569 271.4576 15.08837625 40721,6917.888,95.438,540.675,538.83,0.0
54766.0,STARLINK-5471,PAYLOAD,2023-08-31 10:52:04,15.08844403,0.0001306,53.2165,219.7077,89.9541,270.16,9.8127e-05,1.274e-05,0.0,0 STARLINK-5471,1 54766U 22175J   23243.45282833  .00001274  00000-0  98127-4 0  9999,2 54766  53.2165 219.7077 0001306  89.9541 270.1600 15.08844403 38689,6917.867,95.437,540.635,538.828,0.0
54766.0,STARLINK-5471,PAYLOAD,2023-09-01 10:42:52,15.0883405,7.56e-05,53.2165,215.2519,158.4494,201.653,-0.00065074,-0.00010627,0.0,0 STARLINK-5471,1 54766U 22175J   23244.44644239 -.00010627  00000-0 -65074-3 0  9999,2 54766  53.2165 215.2519 0000756 158.4494 201.6530 15.08834050 38833,6917.899,95.438,540.287,539.241,0.0
54766.0,STARLINK-5471,PAYLOAD,2023-09-01 21:50:32,15.08851254,9.08e-05,53.2174,213.1643,114.4155,245.6932,-4.7264e-05,-1.04e-05,0.0,0 STARLINK-5471,1 54766U 22175J   23244.91010411 -.00001040  00000-0 -47264-4 0  9991,2 54766  53.2174 213.1643 0000908 114.4155 245.6932 15.08851254 41061,6917.846,95.437,540.339,539.083,0.0
54766.0,STARLINK-5471,PAYLOAD,2023-09-02 15:19:47,15.08846756,0.0001402,53.2176,209.893,96.3122,263.803,9.1006e-05,1.161e-05,0.0,0 STARLINK-5471,1 54766U 22175J   23245.63874624  .00001161  00000-0  91006-4 0  9990,2 54766  53.2176 209.8930 0001402  96.3122 263.8030 15.08846756 41170,6917.86,95.437,540.695,538.755,0.0
54766.0,STARLINK-5471,PAYLOAD,2023-09-03 00:52:06,15.08840695,0.0001542,53.2166,208.1087,95.5353,264.5815,4.3925e-05,4.11e-06,0.0,0 STARLINK-5471,1 54766U 22175J   23246.03619097  .00000411  00000-0  43925-4 0  9990,2 54766  53.2166 208.1087 0001542  95.5353 264.5815 15.08840695 39077,6917.878,95.438,540.81,538.677,0.0
54766.0,STARLINK-5471,PAYLOAD,2023-09-03 04:02:53,15.0884159,0.0001431,53.2176,207.5131,102.5415,257.5738,6.0543e-05,6.76e-06,0.0,0 STARLINK-5471,1 54766U 22175J   23246.16866978  .00000676  00000-0  60543-4 0  9994,2 54766  53.2176 207.5131 0001431 102.5415 257.5738 15.08841590 41250,6917.876,95.437,540.73,538.751,0.0
54766.0,STARLINK-5471,PAYLOAD,2023-09-04 00:42:54,15.08836617,0.0001323,53.2163,203.6501,93.4805,266.6338,-3.9651e-05,-9.19e-06,0.0,0 STARLINK-5471,1 54766U 22175J   23247.02979603 -.00000919  00000-0 -39651-4 0  9998,2 54766  53.2163 203.6501 0001323  93.4805 266.6338 15.08836617 39220,6917.891,95.438,540.671,538.84,0.0
54766.0,STARLINK-5471,PAYLOAD,2023-09-04 07:04:26,15.08836527,0.0001281,53.2156,202.4597,91.609,268.5049,1.3061e-05,-8e-07,0.0,0 STARLINK-5471,1 54766U 22175J   23247.29475582 -.00000080  00000-0  13061-4 0  9999,2 54766  53.2156 202.4597 0001281  91.6090 268.5049 15.08836527 41428,6917.891,95.438,540.642,538.87,0.0
54766.0,STARLINK-5471,PAYLOAD,2023-09-05 03:44:27,15.08837875,0.0001352,53.2164,198.5943,91.8099,268.3048,-1.0833e-06,-3.05e-06,0.0,0 STARLINK-5471,1 54766U 22175J   23248.15587693 -.00000305  00000-0 -10833-5 0  9998,2 54766  53.2164 198.5943 0001352  91.8099 268.3048 15.08837875 39394,6917.887,95.438,540.687,538.817,0.0
54766.0,STARLINK-5471,PAYLOAD,2023-09-06 05:10:37,15.08838496,0.0001093,53.2172,193.8375,97.801,262.3106,0.00016163,2.285e-05,0.0,0 STARLINK-5471,1 54766U 22175J   23249.21571594  .00002285  00000-0  16163-3 0  9996,2 54766  53.2172 193.8375 0001093  97.8010 262.3106 15.08838496 39558,6917.885,95.438,540.506,538.994,0.0
54766.0,STARLINK-5471,PAYLOAD,2023-09-07 06:36:48,15.08841608,0.0001108,53.2164,189.0797,98.6402,261.4715,5.4649e-05,5.82e-06,0.0,0 STARLINK-5471,1 54766U 22175J   23250.27555823  .00000582  00000-0  54649-4 0  9991,2 54766  53.2164 189.0797 0001108  98.6402 261.4715 15.08841608 39718,6917.875,95.437,540.507,538.974,0.0
54766.0,STARLINK-5471,PAYLOAD,2023-09-08 03:16:48,15.08845761,0.0001288,53.2173,185.2136,84.8675,275.2464,5.3504e-05,5.64e-06,0.0,0 STARLINK-5471,1 54766U 22175J   23251.13667697  .00000564  00000-0  53504-4 0  9999,2 54766  53.2173 185.2136 0001288  84.8675 275.2464 15.08845761 42005,6917.863,95.437,540.619,538.837,0.0
54766.0,STARLINK-5471,PAYLOAD,2023-09-09 01:32:13,15.08841626,0.000158,53.2177,181.0493,74.0219,286.0948,6.799e-05,7.94e-06,0.0,0 STARLINK-5471,1 54766U 22175J   23252.06404085  .00000794  00000-0  67990-4 0  9991,2 54766  53.2177 181.0493 0001580  74.0219 286.0948 15.08841626 39985,6917.875,95.437,540.833,538.647,0.0
54766.0,STARLINK-5471,PAYLOAD,2023-09-09 12:39:55,15.08840976,0.0001466,53.2177,178.969,82.6617,277.4541,5.8387e-05,6.41e-06,0.0,0 STARLINK-5471,1 54766U 22175J   23252.52772075  .00000641  00000-0  58387-4 0  9990,2 54766  53.2177 178.9690 0001466  82.6617 277.4541 15.08840976 42219,6917.877,95.437,540.757,538.728,0.0
54766.0,STARLINK-5471,PAYLOAD,2023-09-10 04:33:46,15.0884618,0.0001368,53.217,175.9945,84.3445,275.7703,4.6014e-05,4.45e-06,0.0,0 STARLINK-5471,1 54766U 22175J   23253.19011778  .00000445  00000-0  46014-4 0  9996,2 54766  53.2170 175.9945 0001368  84.3445 275.7703 15.08846180 40156,6917.861,95.437,540.673,538.78,0.0
54766.0,STARLINK-5471,PAYLOAD,2023-09-11 01:13:47,15.08842433,0.0001422,53.2169,172.1287,91.5563,268.5592,8.0323e-06,-1.6e-06,0.0,0 STARLINK-5471,1 54766U 22175J   23254.05124199 -.00000160  00000-0  80323-5 0  9991,2 54766  53.2169 172.1287 0001422  91.5563 268.5592 15.08842433 40281,6917.873,95.437,540.722,538.754,0.0
54766.0,STARLINK-5471,PAYLOAD,2023-09-12 02:39:56,15.08848681,0.0001492,53.2171,167.3712,93.4137,266.7026,9.2142e-05,1.179e-05,0.0,0 STARLINK-5471,1 54766U 22175J   23255.11107511  .00001179  00000-0  92142-4 0  9999,2 54766  53.2171 167.3712 0001492  93.4137 266.7026 15.08848681 40449,6917.854,95.437,540.751,538.687,0.0
54766.0,STARLINK-5471,PAYLOAD,2023-09-12 04:15:19,15.08849217,0.0001496,53.2171,167.0738,93.4621,266.6542,9.6181e-05,1.243e-05,0.0,0 STARLINK-5471,1 54766U 22175J   23255.17731451  .00001243  00000-0  96181-4 0  9990,2 54766  53.2171 167.0738 0001496  93.4621 266.6542 15.08849217 42615,6917.852,95.437,540.752,538.682,0.0
54766.0,STARLINK-5471,PAYLOAD,2023-09-12 21:44:35,15.08836856,0.0001347,53.2167,163.8005,68.6493,291.4643,3.9004e-05,3.33e-06,0.0,0 STARLINK-5471,1 54766U 22175J   23255.90596533  .00000333  00000-0  39004-4 0  9991,2 54766  53.2167 163.8005 0001347  68.6493 291.4643 15.08836856 42722,6917.89,95.438,540.687,538.823,0.0
54766.0,STARLINK-5471,PAYLOAD,2023-09-13 00:55:21,15.0884238,0.00013,53.2177,163.211,78.8899,281.2239,9.1027e-05,1.161e-05,0.0,0 STARLINK-5471,1 54766U 22175J   23256.03844150  .00001161  00000-0  91027-4 0  9990,2 54766  53.2177 163.2110 0001300  78.8899 281.2239 15.08842380 40585,6917.873,95.437,540.637,538.839,0.0
54766.0,STARLINK-5471,PAYLOAD,2023-09-13 04:06:07,15.08849269,0.0001312,53.2171,162.6134,84.9371,275.1771,0.00015345,2.156e-05,0.0,0 STARLINK-5471,1 54766U 22175J   23256.17091564  .00002156  00000-0  15345-3 0  9991,2 54766  53.2171 162.6134 0001312  84.9371 275.1771 15.08849269 40603,6917.852,95.437,540.625,538.809,0.0
54766.0,STARLINK-5471,PAYLOAD,2023-09-13 21:35:21,15.08845261,0.0001186,53.2165,159.3421,77.8242,282.2882,2.4939e-05,1.09e-06,0.0,0 STARLINK-5471,1 54766U 22175J   23256.89956001  .00000109  00000-0  24939-4 0  9992,2 54766  53.2165 159.3421 0001186  77.8242 282.2882 15.08845261 42876,6917.864,95.437,540.55,538.909,0.0
54766.0,STARLINK-5471,PAYLOAD,2023-09-14 02:21:30,15.08853771,0.0001267,53.2177,158.4526,92.6442,267.4696,0.00010221,1.34e-05,0.0,0 STARLINK-5471,1 54766U 22175J   23257.09827031  .00001340  00000-0  10221-3 0  9991,2 54766  53.2177 158.4526 0001267  92.6442 267.4696 15.08853771 42909,6917.838,95.437,540.58,538.827,0.0
54766.0,STARLINK-5471,PAYLOAD,2023-09-14 21:26:10,15.08834479,0.0001404,53.2165,154.881,81.9039,278.2112,-7.1557e-05,-1.426e-05,0.0,0 STARLINK-5471,1 54766U 22175J   23257.89317139 -.00001426  00000-0 -71557-4 0  9999,2 54766  53.2165 154.8810 0001404  81.9039 278.2112 15.08834479 43029,6917.897,95.438,540.734,538.791,0.0
54766.0,STARLINK-5471,PAYLOAD,2023-09-15 03:47:42,15.08833568,0.0001484,53.218,153.6924,77.8552,282.2606,-8.9296e-05,-1.709e-05,0.0,0 STARLINK-5471,1 54766U 22175J   23258.15813367 -.00001709  00000-0 -89296-4 0  9996,2 54766  53.2180 153.6924 0001484  77.8552 282.2606 15.08833568 40906,6917.9,95.438,540.792,538.738,0.0
54766.0,STARLINK-5471,PAYLOAD,2023-09-16 00:27:42,15.08851658,0.0001569,53.2172,149.8286,78.6833,281.4335,4.1864e-05,3.78e-06,0.0,0 STARLINK-5471,1 54766U 22175J   23259.01923977  .00000378  00000-0  41864-4 0  9999,2 54766  53.2172 149.8286 0001569  78.6833 281.4335 15.08851658 41035,6917.845,95.437,540.795,538.624,0.0
